NORAD_CAT_ID,OBJECT_NAME,OBJECT_TYPE,EPOCH,MEAN_MOTION,ECCENTRICITY,INCLINATION,RA_OF_ASC_NODE,ARG_OF_PERICENTER,MEAN_ANOMALY,BSTAR,MEAN_MOTION_DOT,MEAN_MOTION_DDOT,TLE_LINE0,TLE_LINE1,TLE_LINE2,SEMIMAJOR_AXIS,PERIOD,APOGEE,PERIGEE,DECAYED
52463.0,STARLINK-3885,PAYLOAD,2024-07-13 10:15:51,15.08838311,0.0001296,53.2165,241.7626,102.9288,257.1849,-3.1161e-05,-7.84e-06,0.0,0 STARLINK-3885,1 52463U 22049N   24195.42767619 -.00000784  00000-0 -31161-4 0  9997,2 52463  53.2165 241.7626 0001296 102.9288 257.1849 15.08838311121165,6917.886,95.438,540.647,538.854,0.0
52463.0,STARLINK-3885,PAYLOAD,2024-07-13 19:48:09,15.08842603,0.0001286,53.2167,239.9781,102.8875,257.226,-2.1159e-05,-6.25e-06,0.0,0 STARLINK-3885,1 52463U 22049N   24195.82511373 -.00000625  00000-0 -21159-4 0  9995,2 52463  53.2167 239.9781 0001286 102.8875 257.2260 15.08842603121389,6917.872,95.437,540.627,538.848,0.0
52463.0,STARLINK-3885,PAYLOAD,2024-07-14 10:06:38,15.08840784,0.0001218,53.2164,237.3015,94.7124,265.4007,7.197e-05,8.58e-06,0.0,0 STARLINK-3885,1 52463U 22049N   24196.42127405  .00000858  00000-0  71970-4 0  9993,2 52463  53.2164 237.3015 0001218  94.7124 265.4007 15.08840784121310,6917.878,95.438,540.586,538.9,0.0
52463.0,STARLINK-3885,PAYLOAD,2024-07-14 19:38:56,15.08843021,0.0001239,53.2169,235.5175,95.2691,264.8443,2.9895e-05,1.88e-06,0.0,0 STARLINK-3885,1 52463U 22049N   24196.81871387  .00000188  00000-0  29895-4 0  9996,2 52463  53.2169 235.5175 0001239  95.2691 264.8443 15.08843021121370,6917.871,95.437,540.593,538.879,0.0
52463.0,STARLINK-3885,PAYLOAD,2024-07-15 02:00:29,15.08837433,0.0001189,53.2164,234.3276,96.7777,263.3351,0.00012063,1.632e-05,0.0,0 STARLINK-3885,1 52463U 22049N   24197.08367548  .00001632  00000-0  12063-3 0  9998,2 52463  53.2164 234.3276 0001189  96.7777 263.3351 15.08837433121573,6917.888,95.438,540.576,538.931,0.0
52463.0,STARLINK-3885,PAYLOAD,2024-07-15 09:57:25,15.08842331,0.0001191,53.2162,232.8405,95.3662,264.7466,0.00011194,1.494e-05,0.0,0 STARLINK-3885,1 52463U 22049N   24197.41487357  .00001494  00000-0  11194-3 0  9996,2 52463  53.2162 232.8405 0001191  95.3662 264.7466 15.08842331121462,6917.873,95.437,540.562,538.914,0.0
52463.0,STARLINK-3885,PAYLOAD,2024-07-15 19:29:43,15.08843191,0.0001136,53.2154,231.0557,86.8082,273.3041,8.869e-05,1.124e-05,0.0,0 STARLINK-3885,1 52463U 22049N   24197.81231288  .00001124  00000-0  88690-4 0  9996,2 52463  53.2154 231.0557 0001136  86.8082 273.3041 15.08843191121529,6917.871,95.437,540.522,538.95,0.0
52463.0,STARLINK-3885,PAYLOAD,2024-07-16 11:23:35,15.0884239,0.0001253,53.2158,228.0818,84.7354,275.3781,4.5468e-05,4.36e-06,0.0,0 STARLINK-3885,1 52463U 22049N   24198.47471524  .00000436  00000-0  45468-4 0  9999,2 52463  53.2158 228.0818 0001253  84.7354 275.3781 15.08842390121789,6917.873,95.437,540.605,538.871,0.0
52463.0,STARLINK-3885,PAYLOAD,2024-07-17 08:03:36,15.0883848,0.0001117,53.2151,224.2146,93.3728,266.7392,2.7866e-05,1.56e-06,0.0,0 STARLINK-3885,1 52463U 22049N   24199.33583693  .00000156  00000-0  27866-4 0  9997,2 52463  53.2151 224.2146 0001117  93.3728 266.7392 15.08838480121758,6917.885,95.438,540.523,538.977,0.0
52463.0,STARLINK-3885,PAYLOAD,2024-07-18 07:54:23,15.08833676,0.0001228,53.2152,219.7521,89.5273,270.586,4.5208e-05,4.32e-06,0.0,0 STARLINK-3885,1 52463U 22049N   24200.32944040  .00000432  00000-0  45208-4 0  9993,2 52463  53.2152 219.7521 0001228  89.5273 270.5860 15.08833676121902,6917.9,95.438,540.614,538.915,0.0
52463.0,STARLINK-3885,PAYLOAD,2024-07-19 04:34:24,15.08837276,0.0001187,53.2158,215.8859,98.6146,261.498,5.7159e-05,6.22e-06,0.0,0 STARLINK-3885,1 52463U 22049N   24201.19055942  .00000622  00000-0  57159-4 0  9992,2 52463  53.2158 215.8859 0001187  98.6146 261.4980 15.08837276122197,6917.889,95.438,540.575,538.933,0.0
52463.0,STARLINK-3885,PAYLOAD,2024-07-19 07:45:10,15.08841238,0.0001284,53.2157,215.2909,100.7316,259.3821,8.1341e-05,1.007e-05,0.0,0 STARLINK-3885,1 52463U 22049N   24201.32303624  .00001007  00000-0  81341-4 0  9998,2 52463  53.2157 215.2909 0001284 100.7316 259.3821 15.08841238122056,6917.877,95.437,540.63,538.853,0.0
52463.0,STARLINK-3885,PAYLOAD,2024-07-20 07:35:57,15.08837818,0.0001342,53.216,210.8339,91.6327,268.4819,0.00014412,2.006e-05,0.0,0 STARLINK-3885,1 52463U 22049N   24202.31663779  .00002006  00000-0  14412-3 0  9992,2 52463  53.2160 210.8339 0001342  91.6327 268.4819 15.08837818122364,6917.887,95.438,540.68,538.824,0.0
52463.0,STARLINK-3885,PAYLOAD,2024-07-20 17:08:16,15.08835963,0.0001334,53.2159,209.0504,90.1441,269.9704,8.5685e-05,1.076e-05,0.0,0 STARLINK-3885,1 52463U 22049N   24202.71408223  .00001076  00000-0  85685-4 0  9994,2 52463  53.2159 209.0504 0001334  90.1441 269.9704 15.08835963122265,6917.893,95.438,540.681,538.835,0.0
52463.0,STARLINK-3885,PAYLOAD,2024-07-21 04:15:59,15.08834265,0.0001448,53.2164,206.973,106.572,253.5432,2.5062e-07,-2.84e-06,0.0,0 STARLINK-3885,1 52463U 22049N   24203.17776692 -.00000284  00000-0  25062-6 0  9999,2 52463  53.2164 206.9730 0001448 106.5720 253.5432 15.08834265122492,6917.898,95.438,540.765,538.761,0.0
52463.0,STARLINK-3885,PAYLOAD,2024-07-21 07:26:45,15.08832104,0.0001401,53.2165,206.3764,100.4782,259.6369,-2.2971e-05,-6.53e-06,0.0,0 STARLINK-3885,1 52463U 22049N   24203.31024915 -.00000653  00000-0 -22971-4 0  9994,2 52463  53.2165 206.3764 0001401 100.4782 259.6369 15.08832104122355,6917.905,95.438,540.739,538.8,0.0
52463.0,STARLINK-3885,PAYLOAD,2024-07-22 07:17:32,15.08841468,0.0001347,53.2167,201.9152,96.8115,263.303,5.9833e-05,6.64e-06,0.0,0 STARLINK-3885,1 52463U 22049N   24204.30384313  .00000664  00000-0  59833-4 0  9992,2 52463  53.2167 201.9152 0001347  96.8115 263.3030 15.08841468122660,6917.876,95.437,540.673,538.809,0.0
52463.0,STARLINK-3885,PAYLOAD,2024-07-23 07:08:18,15.08845339,0.0001234,53.2161,197.4531,94.015,266.0983,0.00016986,2.417e-05,0.0,0 STARLINK-3885,1 52463U 22049N   24205.29743855  .00002417  00000-0  16986-3 0  9990,2 52463  53.2161 197.4531 0001234  94.0150 266.0983 15.08845339122655,6917.864,95.437,540.583,538.875,0.0
52463.0,STARLINK-3885,PAYLOAD,2024-07-23 23:02:10,15.08842934,0.0001391,53.2163,194.4842,82.3576,277.7574,5.0517e-05,5.16e-06,0.0,0 STARLINK-3885,1 52463U 22049N   24205.95984446  .00000516  00000-0  50517-4 0  9993,2 52463  53.2163 194.4842 0001391  82.3576 277.7574 15.08842934122759,6917.871,95.437,540.699,538.774,0.0
52463.0,STARLINK-3885,PAYLOAD,2024-07-24 05:23:43,15.08837926,0.0001469,53.2165,193.2903,77.6804,282.4352,3.7768e-06,-2.28e-06,0.0,0 STARLINK-3885,1 52463U 22049N   24206.22480954 -.00000228  00000-0  37768-5 0  9994,2 52463  53.2165 193.2903 0001469  77.6804 282.4352 15.08837926122957,6917.887,95.438,540.768,538.735,0.0
52463.0,STARLINK-3885,PAYLOAD,2024-07-24 08:34:29,15.08840087,0.0001456,53.2166,192.6949,81.08,279.0357,1.6947e-05,-1.8e-07,0.0,0 STARLINK-3885,1 52463U 22049N   24206.35728746 -.00000018  00000-0  16947-4 0  9994,2 52463  53.2166 192.6949 0001456  81.0800 279.0357 15.08840087122816,6917.88,95.438,540.752,538.738,0.0
52463.0,STARLINK-3885,PAYLOAD,2024-07-25 05:14:29,15.08845826,0.0001612,53.2167,188.8295,74.062,286.055,7.6806e-05,9.35e-06,0.0,0 STARLINK-3885,1 52463U 22049N   24207.21840094  .00000935  00000-0  76806-4 0  9998,2 52463  53.2167 188.8295 0001612  74.0620 286.0550 15.08845826123106,6917.863,95.437,540.843,538.612,0.0
52463.0,STARLINK-3885,PAYLOAD,2024-07-25 22:43:45,15.08834548,0.0001578,53.2165,185.5585,75.3365,284.7802,3.5667e-05,2.8e-06,0.0,0 STARLINK-3885,1 52463U 22049N   24207.94704871  .00000280  00000-0  35667-4 0  9993,2 52463  53.2165 185.5585 0001578  75.3365 284.7802 15.08834548123059,6917.897,95.438,540.854,538.67,0.0
52463.0,STARLINK-3885,PAYLOAD,2024-07-26 05:05:17,15.08834764,0.000157,53.2164,184.3687,76.3279,283.7888,3.3475e-05,2.45e-06,0.0,0 STARLINK-3885,1 52463U 22049N   24208.21200946  .00000245  00000-0  33475-4 0  9994,2 52463  53.2164 184.3687 0001570  76.3279 283.7888 15.08834764123250,6917.896,95.438,540.848,538.675,0.0
52463.0,STARLINK-3885,PAYLOAD,2024-07-26 08:16:03,15.08836649,0.0001504,53.2162,183.7733,79.894,280.2222,4.4514e-05,4.2e-06,0.0,0 STARLINK-3885,1 52463U 22049N   24208.34448783  .00000420  00000-0  44514-4 0  9992,2 52463  53.2162 183.7733 0001504  79.8940 280.2222 15.08836649123116,6917.891,95.438,540.796,538.715,0.0
52463.0,STARLINK-3885,PAYLOAD,2024-07-27 04:56:03,15.08846314,0.0001486,53.2161,179.9076,86.0408,274.0754,9.7071e-05,1.258e-05,0.0,0 STARLINK-3885,1 52463U 22049N   24209.20559764  .00001258  00000-0  97071-4 0  9996,2 52463  53.2161 179.9076 0001486  86.0408 274.0754 15.08846314123403,6917.861,95.437,540.754,538.698,0.0
52463.0,STARLINK-3885,PAYLOAD,2024-07-28 04:46:51,15.0883298,0.0001372,53.2166,175.4472,90.064,270.0509,1.4981e-05,-5e-07,0.0,0 STARLINK-3885,1 52463U 22049N   24210.19921126 -.00000050  00000-0  14981-4 0  9990,2 52463  53.2166 175.4472 0001372  90.0640 270.0509 15.08832980123550,6917.902,95.438,540.716,538.818,0.0
52463.0,STARLINK-3885,PAYLOAD,2024-07-29 03:02:16,15.08776448,0.0001555,53.2171,171.2862,84.4575,275.6594,0.00070195,0.00010882,0.0,0 STARLINK-3885,1 52463U 22049N   24211.12657974  .00010882  00000-0  70195-3 0  9992,2 52463  53.2171 171.2862 0001555  84.4575 275.6594 15.08776448123696,6918.075,95.442,541.015,538.864,0.0
52463.0,STARLINK-3885,PAYLOAD,2024-07-29 14:09:57,15.08842778,0.0001397,53.2173,169.2048,97.1872,262.9279,-3.0063e-05,-7.66e-06,0.0,0 STARLINK-3885,1 52463U 22049N   24211.59025100 -.00000766  00000-0 -30063-4 0  9996,2 52463  53.2173 169.2048 0001397  97.1872 262.9279 15.08842778123763,6917.872,95.437,540.703,538.77,0.0
52463.0,STARLINK-3885,PAYLOAD,2024-07-30 04:28:27,15.08831571,0.0001368,53.2171,166.5284,97.7491,262.3656,9.0458e-05,1.152e-05,0.0,0 STARLINK-3885,1 52463U 22049N   24212.18642778  .00001152  00000-0  90458-4 0  9990,2 52463  53.2171 166.5284 0001368  97.7491 262.3656 15.08831571123856,6917.906,95.438,540.718,538.825,0.0
